NORAD_CAT_ID,OBJECT_NAME,OBJECT_TYPE,EPOCH,MEAN_MOTION,ECCENTRICITY,INCLINATION,RA_OF_ASC_NODE,ARG_OF_PERICENTER,MEAN_ANOMALY,BSTAR,MEAN_MOTION_DOT,MEAN_MOTION_DDOT,TLE_LINE0,TLE_LINE1,TLE_LINE2,SEMIMAJOR_AXIS,PERIOD,APOGEE,PERIGEE,DECAYED
51856.0,STARLINK-3568,PAYLOAD,2023-02-01 09:43:16,15.08847808,0.0001263,53.2152,62.1469,87.8394,272.2743,7.0299e-05,8.31e-06,0.0,0 STARLINK-3568,1 51856U 22022E   23032.40505775  .00000831  00000-0  70299-4 0  9999,2 51856  53.2152  62.1469 0001263  87.8394 272.2743 15.08847808 52119,6917.857,95.437,540.595,538.848,0.0
51856.0,STARLINK-3568,PAYLOAD,2023-02-01 19:15:36,15.08840172,0.0001546,53.2165,60.3615,86.1507,273.9661,1.0715e-05,-1.17e-06,0.0,0 STARLINK-3568,1 51856U 22022E   23032.80250437 -.00000117  00000-0  10715-4 0  9990,2 51856  53.2165  60.3615 0001546  86.1507 273.9661 15.08840172 52178,6917.88,95.438,540.814,538.675,0.0
51856.0,STARLINK-3568,PAYLOAD,2023-02-02 11:09:27,15.08840096,0.0001436,53.2154,57.3876,92.7557,267.36,6.1932e-06,-1.89e-06,0.0,0 STARLINK-3568,1 51856U 22022E   23033.46490444 -.00000189  00000-0  61932-5 0  9994,2 51856  53.2154  57.3876 0001436  92.7557 267.3600 15.08840096 52273,6917.88,95.438,540.739,538.752,0.0
51856.0,STARLINK-3568,PAYLOAD,2023-02-03 04:38:42,15.08839747,0.0001364,53.2152,54.1165,95.8638,264.251,3.0865e-05,2.03e-06,0.0,0 STARLINK-3568,1 51856U 22022E   23034.19354388  .00000203  00000-0  30865-4 0  9997,2 51856  53.2152  54.1165 0001364  95.8638 264.2510 15.08839747 52380,6917.881,95.438,540.69,538.803,0.0
51856.0,STARLINK-3568,PAYLOAD,2023-02-03 07:49:28,15.08845079,0.0001532,53.2155,53.5217,95.8453,264.2714,-2.4345e-06,-3.27e-06,0.0,0 STARLINK-3568,1 51856U 22022E   23034.32602177 -.00000327  00000-0 -24345-5 0  9990,2 51856  53.2155  53.5217 0001532  95.8453 264.2714 15.08845079 52400,6917.865,95.437,540.79,538.67,0.0
51856.0,STARLINK-3568,PAYLOAD,2023-02-04 06:04:52,15.08837419,0.0001492,53.2151,49.36,91.3262,268.7901,6.4151e-05,7.33e-06,0.0,0 STARLINK-3568,1 51856U 22022E   23035.25338504  .00000733  00000-0  64151-4 0  9990,2 51856  53.2151  49.3600 0001492  91.3262 268.7901 15.08837419 52540,6917.888,95.438,540.785,538.721,0.0
51856.0,STARLINK-3568,PAYLOAD,2023-02-04 07:40:15,15.08839428,0.0001567,53.2164,49.0634,93.2506,266.8665,5.7312e-05,6.24e-06,0.0,0 STARLINK-3568,1 51856U 22022E   23035.31962421  .00000624  00000-0  57312-4 0  9998,2 51856  53.2164  49.0634 0001567  93.2506 266.8665 15.08839428 52552,6917.882,95.438,540.831,538.663,0.0
51856.0,STARLINK-3568,PAYLOAD,2023-02-05 04:20:16,15.08833808,0.0001692,53.2177,45.1991,107.4373,252.6804,-8.786e-06,-4.28e-06,0.0,0 STARLINK-3568,1 51856U 22022E   23036.18075172 -.00000428  00000-0 -87860-5 0  9998,2 51856  53.2177  45.1991 0001692 107.4373 252.6804 15.08833808 52686,6917.899,95.438,540.935,538.594,0.0
51856.0,STARLINK-3568,PAYLOAD,2023-02-05 07:31:03,15.08833606,0.0001642,53.2177,44.6045,106.3054,253.8119,-1.1897e-05,-4.77e-06,0.0,0 STARLINK-3568,1 51856U 22022E   23036.31323237 -.00000477  00000-0 -11897-4 0  9991,2 51856  53.2177  44.6045 0001642 106.3054 253.8119 15.08833606 52700,6917.9,95.438,540.901,538.629,0.0
51856.0,STARLINK-3568,PAYLOAD,2023-02-06 08:57:12,15.08845291,0.000141,53.2172,39.8456,101.6726,258.4424,9.3179e-05,1.196e-05,0.0,0 STARLINK-3568,1 51856U 22022E   23037.37306384  .00001196  00000-0  93179-4 0  9992,2 51856  53.2172  39.8456 0001410 101.6726 258.4424 15.08845291 52864,6917.864,95.437,540.705,538.754,0.0
51856.0,STARLINK-3568,PAYLOAD,2023-02-07 08:47:58,15.08857066,0.0001355,53.2172,35.3839,110.9009,249.2128,0.0002203,3.221e-05,0.0,0 STARLINK-3568,1 51856U 22022E   23038.36665218  .00003221  00000-0  22030-3 0  9994,2 51856  53.2172  35.3839 0001355 110.9009 249.2128 15.08857066 53015,6917.828,95.436,540.631,538.756,0.0
51856.0,STARLINK-3568,PAYLOAD,2023-02-08 05:28:00,15.0884693,0.000159,53.2172,31.5191,101.5738,258.5433,1.6056e-05,-3.2e-07,0.0,0 STARLINK-3568,1 51856U 22022E   23039.22778480 -.00000032  00000-0  16056-4 0  9996,2 51856  53.2172  31.5191 0001590 101.5738 258.5433 15.08846930 53144,6917.859,95.437,540.824,538.624,0.0
51856.0,STARLINK-3568,PAYLOAD,2023-02-08 08:38:46,15.0885367,0.0001519,53.2172,30.9243,96.3035,263.813,7.5123e-05,9.08e-06,0.0,0 STARLINK-3568,1 51856U 22022E   23039.36025849  .00000908  00000-0  75123-4 0  9996,2 51856  53.2172  30.9243 0001519  96.3035 263.8130 15.08853670 53161,6917.839,95.437,540.754,538.653,0.0
51856.0,STARLINK-3568,PAYLOAD,2023-02-09 05:18:47,15.08844717,0.0001574,53.217,27.0573,114.254,245.8617,-9.4595e-05,-1.793e-05,0.0,0 STARLINK-3568,1 51856U 22022E   23040.22138820 -.00001793  00000-0 -94595-4 0  9996,2 51856  53.2170  27.0573 0001574 114.2540 245.8617 15.08844717 53290,6917.866,95.437,540.82,538.642,0.0
51856.0,STARLINK-3568,PAYLOAD,2023-02-09 16:26:29,15.08847947,0.0001636,53.2177,24.975,105.9598,254.1574,-7.9663e-05,-1.556e-05,0.0,0 STARLINK-3568,1 51856U 22022E   23040.68506540 -.00001556  00000-0 -79663-4 0  9990,2 51856  53.2177  24.9750 0001636 105.9598 254.1574 15.08847947 53360,6917.856,95.437,540.853,538.589,0.0
51856.0,STARLINK-3568,PAYLOAD,2023-02-10 05:09:34,15.08846469,0.0001745,53.2171,22.5947,115.8714,244.2458,9.496e-05,1.224e-05,0.0,0 STARLINK-3568,1 51856U 22022E   23041.21498473  .00001224  00000-0  94960-4 0  9992,2 51856  53.2171  22.5947 0001745 115.8714 244.2458 15.08846469 53445,6917.861,95.437,540.933,538.518,0.0
51856.0,STARLINK-3568,PAYLOAD,2023-02-11 05:00:21,15.08848714,0.0001137,53.2171,18.1372,114.1058,246.0053,0.00014832,2.074e-05,0.0,0 STARLINK-3568,1 51856U 22022E   23042.20858113  .00002074  00000-0  14832-3 0  9996,2 51856  53.2171  18.1372 0001137 114.1058 246.0053 15.08848714 53598,6917.854,95.437,540.505,538.932,0.0
51856.0,STARLINK-3568,PAYLOAD,2023-02-11 20:54:13,15.08838095,0.0001533,53.2169,15.1598,119.5623,240.5522,5.2661e-05,5.5e-06,0.0,0 STARLINK-3568,1 51856U 22022E   23042.87099254  .00000550  00000-0  52661-4 0  9992,2 51856  53.2169  15.1598 0001533 119.5623 240.5522 15.08838095 53691,6917.886,95.438,540.812,538.691,0.0
51856.0,STARLINK-3568,PAYLOAD,2023-02-12 14:23:28,15.08825057,0.0001749,53.217,11.8895,85.3698,274.7494,-0.00020055,-3.477e-05,0.0,0 STARLINK-3568,1 51856U 22022E   23043.59963800 -.00003477  00000-0 -20055-3 0  9993,2 51856  53.2170  11.8895 0001749  85.3698 274.7494 15.08825057 53801,6917.926,95.438,541.001,538.581,0.0
51856.0,STARLINK-3568,PAYLOAD,2023-02-13 04:41:56,15.0884085,0.0001318,53.2171,9.2187,113.3715,246.7416,-7.4308e-05,-1.47e-05,0.0,0 STARLINK-3568,1 51856U 22022E   23044.19579105 -.00001470  00000-0 -74308-4 0  9993,2 51856  53.2171   9.2187 0001318 113.3715 246.7416 15.08840850 53891,6917.878,95.438,540.655,538.831,0.0
51856.0,STARLINK-3568,PAYLOAD,2023-02-13 14:14:15,15.08842089,0.0001168,53.2162,7.4307,107.8079,252.3041,0.00020996,3.055e-05,0.0,0 STARLINK-3568,1 51856U 22022E   23044.59323202  .00003055  00000-0  20996-3 0  9994,2 51856  53.2162   7.4307 0001168 107.8079 252.3041 15.08842089 53959,6917.874,95.437,540.547,538.931,0.0
51856.0,STARLINK-3568,PAYLOAD,2023-02-14 02:57:19,15.08858024,0.000171,53.2175,5.0535,114.3096,245.8075,0.00050446,7.753e-05,0.0,0 STARLINK-3568,1 51856U 22022E   23045.12314717  .00007753  00000-0  50446-3 0  9997,2 51856  53.2175   5.0535 0001710 114.3096 245.8075 15.08858024 54035,6917.825,95.436,540.873,538.507,0.0
51856.0,STARLINK-3568,PAYLOAD,2023-02-14 09:18:51,15.08879485,0.0001201,53.2164,3.8629,105.5337,254.5788,0.00098691,0.0001547,0.0,0 STARLINK-3568,1 51856U 22022E   23045.38809978  .00015470  00000-0  98691-3 0  9992,2 51856  53.2164   3.8629 0001201 105.5337 254.5788 15.08879485 54074,6917.76,95.435,540.456,538.794,0.0
51856.0,STARLINK-3568,PAYLOAD,2023-02-14 14:05:01,15.08837238,9.42e-05,53.2188,2.9735,116.8201,243.2888,-0.00038723,-6.445e-05,0.0,0 STARLINK-3568,1 51856U 22022E   23045.58682787 -.00006445  00000-0 -38723-3 0  9995,2 51856  53.2188   2.9735 0000942 116.8201 243.2888 15.08837238 54104,6917.889,95.438,540.405,539.102,0.0
51856.0,STARLINK-3568,PAYLOAD,2023-02-15 09:09:40,15.08843124,0.0001048,53.2157,359.4037,80.5984,279.5127,0.0020478,0.00032456,0.0,0 STARLINK-3568,1 51856U 22022E   23046.38171605  .00032456  00000-0  20478-2 0  9992,2 51856  53.2157 359.4037 0001048  80.5984 279.5127 15.08843124 54220,6917.871,95.437,540.461,539.011,0.0
51856.0,STARLINK-3568,PAYLOAD,2023-02-15 20:17:21,15.08896042,0.0001056,53.2157,357.3213,87.4946,272.6167,0.0031225,0.00049835,0.0,0 STARLINK-3568,1 51856U 22022E   23046.84538625  .00049835  00000-0  31225-2 0  9993,2 51856  53.2157 357.3213 0001056  87.4946 272.6167 15.08896042 54298,6917.709,95.434,540.305,538.844,0.0
51856.0,STARLINK-3568,PAYLOAD,2023-02-16 04:14:16,15.08900567,0.0001029,53.2156,355.8341,84.0002,276.1107,0.0020279,0.00032187,0.0,0 STARLINK-3568,1 51856U 22022E   23047.17657650  .00032187  00000-0  20279-2 0  9999,2 51856  53.2156 355.8341 0001029  84.0002 276.1107 15.08900567 54345,6917.695,95.434,540.272,538.848,0.0
51856.0,STARLINK-3568,PAYLOAD,2023-02-16 13:46:34,15.08878911,0.0001222,53.2156,354.0497,87.4399,272.6733,0.0010525,0.0001652,0.0,0 STARLINK-3568,1 51856U 22022E   23047.57401354  .00016520  00000-0  10525-2 0  9997,2 51856  53.2156 354.0497 0001222  87.4399 272.6733 15.08878911 54409,6917.761,95.435,540.472,538.781,0.0
51856.0,STARLINK-3568,PAYLOAD,2023-02-16 23:18:53,15.08850687,0.0001119,53.2158,352.2655,111.291,248.8202,0.0011599,0.00018225,0.0,0 STARLINK-3568,1 51856U 22022E   23047.97145390  .00018225  00000-0  11599-2 0  9992,2 51856  53.2158 352.2655 0001119 111.2910 248.8202 15.08850687 54469,6917.848,95.437,540.487,538.939,0.0
51856.0,STARLINK-3568,PAYLOAD,2023-02-17 13:37:23,15.08795795,0.0002955,53.2157,349.5891,77.6905,282.4418,-0.00096818,-0.00015647,0.0,0 STARLINK-3568,1 51856U 22022E   23048.56763453 -.00015647  00000-0 -96818-3 0  9999,2 51856  53.2157 349.5891 0002955  77.6905 282.4418 15.08795795 54558,6918.016,95.44,541.925,537.836,0.0
